[{"OBJECT_NAME":"ASTROCAST-0105","OBJECT_ID":"2021-006DH","EPOCH":"2026-03-09T17:20:38.781312","MEAN_MOTION":15.64049096,"ECCENTRICITY":0.00037712,"INCLINATION":97.2264,"RA_OF_ASC_NODE":129.5719,"ARG_OF_PERICENTER":120.6716,"MEAN_ANOMALY":239.4916,"EPHEMERIS_TYPE":0,"CLASSIFICATION_TYPE":"U","NORAD_CAT_ID":47517,"ELEMENT_SET_NO":999,"REV_AT_EPOCH":28529,"BSTAR":0.00053852999,"MEAN_MOTION_DOT":0.00050985,"MEAN_MOTION_DDOT":0},{"OBJECT_NAME":"STARLINK-2021","OBJECT_ID":"2021-009BJ","EPOCH":"2026-03-09T21:25:11.703648","MEAN_MOTION":15.65170997,"ECCENTRICITY":0.00069123,"INCLINATION":53.0451,"RA_OF_ASC_NODE":334.9816,"ARG_OF_PERICENTER":125.4703,"MEAN_ANOMALY":234.6958,"EPHEMERIS_TYPE":0,"CLASSIFICATION_TYPE":"U","NORAD_CAT_ID":47604,"ELEMENT_SET_NO":999,"REV_AT_EPOCH":28147,"BSTAR":0.00097097942,"MEAN_MOTION_DOT":0.00098541,"MEAN_MOTION_DDOT":0}]
